GLOBALSTAR M084         
1 38040U 11080A   26013.61120277 -.00000112  00000+0 -45182-4 0  9992
2 38040  52.0003 127.8671 0001144 116.4108 256.7394 12.62267106649244
GLOBALSTAR M080         
1 38041U 11080B   26013.58277565 -.00000112  00000+0 -46924-4 0  9997
2 38041  52.0053 129.6185 0000425 118.4822 255.1837 12.62265439649361
GLOBALSTAR M082         
1 38042U 11080C   26013.43995897 -.00000101  00000+0  14093-4 0  9996
2 38042  52.0083  85.5384 0000301 129.7231 244.3913 12.62266606650058
GLOBALSTAR M092         
1 38043U 11080D   26013.66596858 -.00000084  00000+0  11171-3 0  9999
2 38043  52.0061 175.2375 0001026  97.4968 344.0024 12.62269376648533
GLOBALSTAR M090         
1 38044U 11080E   26013.57446167 -.00000102  00000+0  75937-5 0  9990
2 38044  52.0129  79.0356 0000517 105.9304  38.4777 12.62265771650180
GLOBALSTAR M086         
1 38045U 11080F   26013.49052868 -.00000105  00000+0 -48430-5 0  9995
2 38045  51.9906  79.4727 0001514  82.0323 292.4066 12.62282014650128
GLOBALSTAR M097         
1 39072U 13005A   26013.35747424 -.00000094  00000+0  54045-4 0  9993
2 39072  52.0070 354.6502 0000481  55.8474 304.2439 12.62268118597359
GLOBALSTAR M093         
1 39073U 13005B   26013.41049426 -.00000091  00000+0  70336-4 0  9996
2 39073  52.0129 347.7780 0000670  35.6412 324.4500 12.62271579597318
